NORAD_CAT_ID,OBJECT_NAME,OBJECT_TYPE,EPOCH,MEAN_MOTION,ECCENTRICITY,INCLINATION,RA_OF_ASC_NODE,ARG_OF_PERICENTER,MEAN_ANOMALY,BSTAR,MEAN_MOTION_DOT,MEAN_MOTION_DDOT,TLE_LINE0,TLE_LINE1,TLE_LINE2,SEMIMAJOR_AXIS,PERIOD,APOGEE,PERIGEE,DECAYED
56496.0,STARLINK-5526,PAYLOAD,2024-01-19 18:58:18,14.98328513,0.0002675,69.9996,270.7517,266.3822,93.7031,6.0209e-05,6.25e-06,0.0,0 STARLINK-5526,1 56496U 23064BA  24019.79048841  .00000625  00000-0  60209-4 0  9996,2 56496  69.9996 270.7517 0002675 266.3822  93.7031 14.98328513 39771,6950.197,96.107,573.922,570.203,0.0
56496.0,STARLINK-5526,PAYLOAD,2024-01-19 22:10:34,14.98328676,0.0002672,69.9996,270.4148,266.7202,93.3652,6.0365e-05,6.27e-06,0.0,0 STARLINK-5526,1 56496U 23064BA  24019.92400834  .00000627  00000-0  60365-4 0  9990,2 56496  69.9996 270.4148 0002672 266.7202  93.3652 14.98328676 39439,6950.197,96.107,573.919,570.205,0.0
56496.0,STARLINK-5526,PAYLOAD,2024-01-20 02:58:58,14.98332363,0.0002636,69.9996,269.9101,265.239,94.8468,9.66e-05,1.06e-05,0.0,0 STARLINK-5526,1 56496U 23064BA  24020.12428474  .00001060  00000-0  96600-4 0  9997,2 56496  69.9996 269.9101 0002636 265.2390  94.8468 14.98332363 39465,6950.186,96.107,573.883,570.219,0.0
56496.0,STARLINK-5526,PAYLOAD,2024-01-20 19:00:19,14.98328444,0.0002409,70.0003,268.2276,254.998,105.0912,-4.9461e-05,-6.83e-06,0.0,0 STARLINK-5526,1 56496U 23064BA  24020.79189083 -.00000683  00000-0 -49461-4 0  9995,2 56496  70.0003 268.2276 0002409 254.9980 105.0912 14.98328444 39925,6950.198,96.107,573.737,570.388,0.0
56496.0,STARLINK-5526,PAYLOAD,2024-01-20 22:12:35,14.98325963,0.0002449,70.0003,267.8906,254.2667,105.8222,-2.6256e-05,-4.06e-06,0.0,0 STARLINK-5526,1 56496U 23064BA  24020.92541168 -.00000406  00000-0 -26256-4 0  9996,2 56496  70.0003 267.8906 0002449 254.2667 105.8222 14.98325963 39586,6950.205,96.107,573.772,570.368,0.0
56496.0,STARLINK-5526,PAYLOAD,2024-01-21 01:24:51,14.98326972,0.0002441,70.0003,267.5542,255.4125,104.6764,-6.4144e-05,-8.58e-06,0.0,0 STARLINK-5526,1 56496U 23064BA  24021.05893240 -.00000858  00000-0 -64144-4 0  9991,2 56496  70.0003 267.5542 0002441 255.4125 104.6764 14.98326972 39605,6950.202,96.107,573.764,570.371,0.0
56496.0,STARLINK-5526,PAYLOAD,2024-01-21 19:02:19,14.98334081,0.0002531,69.9999,265.7018,256.6996,103.3881,2.4395e-05,1.98e-06,0.0,0 STARLINK-5526,1 56496U 23064BA  24021.79328456  .00000198  00000-0  24395-4 0  9993,2 56496  69.9999 265.7018 0002531 256.6996 103.3881 14.98334081 40072,6950.18,96.107,573.804,570.286,0.0
56496.0,STARLINK-5526,PAYLOAD,2024-01-21 20:38:27,14.98333858,0.0002537,70.0,265.5334,256.6566,103.431,2.1508e-05,1.64e-06,0.0,0 STARLINK-5526,1 56496U 23064BA  24021.86004454  .00000164  00000-0  21508-4 0  9996,2 56496  70.0000 265.5334 0002537 256.6566 103.4310 14.98333858 39725,6950.181,96.107,573.809,570.283,0.0
56496.0,STARLINK-5526,PAYLOAD,2024-01-22 03:03:00,14.98333361,0.0002545,69.9999,264.8604,258.7203,101.367,1.3844e-05,7.2e-07,0.0,0 STARLINK-5526,1 56496U 23064BA  24022.12708462  .00000072  00000-0  13844-4 0  9998,2 56496  69.9999 264.8604 0002545 258.7203 101.3670 14.98333361 39760,6950.182,96.107,573.816,570.279,0.0
56496.0,STARLINK-5526,PAYLOAD,2024-01-22 19:04:21,14.98324876,0.0002635,69.9997,263.1767,258.9837,101.1026,1.2682e-05,5.8e-07,0.0,0 STARLINK-5526,1 56496U 23064BA  24022.79469027  .00000058  00000-0  12682-4 0  9995,2 56496  69.9997 263.1767 0002635 258.9837 101.1026 14.98324876 40222,6950.209,96.107,573.905,570.242,0.0
56496.0,STARLINK-5526,PAYLOAD,2024-01-22 22:16:37,14.98324373,0.0002647,69.9997,262.8399,258.8729,101.2132,5.1144e-06,-3.2e-07,0.0,0 STARLINK-5526,1 56496U 23064BA  24022.92821105 -.00000032  00000-0  51144-5 0  9999,2 56496  69.9997 262.8399 0002647 258.8729 101.2132 14.98324373 39882,6950.21,96.107,573.915,570.236,0.0
56496.0,STARLINK-5526,PAYLOAD,2024-01-23 01:28:53,14.98327248,0.0002613,69.9997,262.5032,257.3485,102.7382,3.7898e-05,3.59e-06,0.0,0 STARLINK-5526,1 56496U 23064BA  24023.06172849  .00000359  00000-0  37898-4 0  9999,2 56496  69.9997 262.5032 0002613 257.3485 102.7382 14.98327248 39909,6950.201,96.107,573.882,570.25,0.0
56496.0,STARLINK-5526,PAYLOAD,2024-01-23 22:18:37,14.98335045,0.0002664,69.9996,260.3146,258.4717,101.6143,8.2511e-06,6e-08,0.0,0 STARLINK-5526,1 56496U 23064BA  24023.92960275  .00000006  00000-0  82511-5 0  9994,2 56496  69.9996 260.3146 0002664 258.4717 101.6143 14.98335045 40039,6950.177,96.107,573.894,570.191,0.0
56496.0,STARLINK-5526,PAYLOAD,2024-01-24 01:30:53,14.98336987,0.0002637,69.9996,259.9781,257.764,102.3224,3.1373e-05,2.81e-06,0.0,0 STARLINK-5526,1 56496U 23064BA  24024.06312035  .00000281  00000-0  31373-4 0  9999,2 56496  69.9996 259.9781 0002637 257.7640 102.3224 14.98336987 40411,6950.171,96.107,573.869,570.204,0.0
56496.0,STARLINK-5526,PAYLOAD,2024-01-24 20:44:30,14.9832858,0.0002709,69.9997,257.959,248.8247,111.2623,-2.7604e-06,-1.26e-06,0.0,0 STARLINK-5526,1 56496U 23064BA  24024.86424526 -.00000126  00000-0 -27604-5 0  9999,2 56496  69.9997 257.9590 0002709 248.8247 111.2623 14.98328580 40537,6950.197,96.107,573.945,570.179,0.0
56496.0,STARLINK-5526,PAYLOAD,2024-01-24 22:20:38,14.98328037,0.0002717,69.9997,257.791,249.5755,110.5113,-1.0718e-05,-2.21e-06,0.0,0 STARLINK-5526,1 56496U 23064BA  24024.93100583 -.00000221  00000-0 -10718-4 0  9994,2 56496  69.9997 257.7910 0002717 249.5755 110.5113 14.98328037 40186,6950.199,96.107,573.952,570.176,0.0
56496.0,STARLINK-5526,PAYLOAD,2024-01-25 01:32:55,14.98327349,0.0002725,69.9996,257.4541,252.6772,107.4089,-1.9696e-05,-3.28e-06,0.0,0 STARLINK-5526,1 56496U 23064BA  24025.06452681 -.00000328  00000-0 -19696-4 0  9990,2 56496  69.9996 257.4541 0002725 252.6772 107.4089 14.98327349 40200,6950.201,96.107,573.96,570.172,0.0
56496.0,STARLINK-5526,PAYLOAD,2024-01-25 22:22:39,14.98328178,0.0002791,69.9995,255.2654,261.5529,98.5314,-1.1213e-06,-1.06e-06,0.0,0 STARLINK-5526,1 56496U 23064BA  24025.93240631 -.00000106  00000-0 -11213-5 0  9998,2 56496  69.9995 255.2654 0002791 261.5529  98.5314 14.98328178 40338,6950.199,96.107,574.003,570.124,0.0
56496.0,STARLINK-5526,PAYLOAD,2024-01-26 01:34:55,14.98329295,0.0002722,69.9997,254.9293,256.7303,103.3553,5.1426e-07,-8.7e-07,0.0,0 STARLINK-5526,1 56496U 23064BA  24026.06592544 -.00000087  00000-0  51426-6 0  9994,2 56496  69.9997 254.9293 0002722 256.7303 103.3553 14.98329295 40718,6950.195,96.107,573.952,570.168,0.0
56496.0,STARLINK-5526,PAYLOAD,2024-01-27 00:00:48,14.98334239,0.0002749,69.9994,252.5716,262.977,97.1076,9.9556e-05,1.095e-05,0.0,0 STARLINK-5526,1 56496U 23064BA  24027.00055806  .00001095  00000-0  99556-4 0  9997,2 56496  69.9994 252.5716 0002749 262.9770  97.1076 14.98334239 40854,6950.18,96.107,573.955,570.134,0.0
56496.0,STARLINK-5526,PAYLOAD,2024-01-27 14:26:01,14.98327677,0.000266,69.9996,251.0564,261.9368,98.1489,9.5526e-06,2.1e-07,0.0,0 STARLINK-5526,1 56496U 23064BA  24027.60140440  .00000021  00000-0  95526-5 0  9994,2 56496  69.9996 251.0564 0002660 261.9368  98.1489 14.98327677 40582,6950.2,96.107,573.914,570.216,0.0
56496.0,STARLINK-5526,PAYLOAD,2024-01-27 19:14:25,14.98327216,0.0002679,69.9996,250.5513,261.2041,98.8815,1.4495e-06,-7.6e-07,0.0,0 STARLINK-5526,1 56496U 23064BA  24027.80168495 -.00000076  00000-0  14495-5 0  9993,2 56496  69.9996 250.5513 0002679 261.2041  98.8815 14.98327216 40973,6950.202,96.107,573.928,570.205,0.0
56496.0,STARLINK-5526,PAYLOAD,2024-01-27 22:26:41,14.98325692,0.0002709,69.9997,250.215,262.8158,97.2693,-1.9705e-05,-3.28e-06,0.0,0 STARLINK-5526,1 56496U 23064BA  24027.93520666 -.00000328  00000-0 -19705-4 0  9998,2 56496  69.9997 250.2150 0002709 262.8158  97.2693 14.98325692 40634,6950.206,96.107,573.954,570.188,0.0
56496.0,STARLINK-5526,PAYLOAD,2024-01-28 14:28:02,14.98332075,0.0002673,69.9998,248.5319,261.7207,98.3649,-4.7167e-05,-6.56e-06,0.0,0 STARLINK-5526,1 56496U 23064BA  24028.60280380 -.00000656  00000-0 -47167-4 0  9996,2 56496  69.9998 248.5319 0002673 261.7207  98.3649 14.98332075 40732,6950.186,96.107,573.909,570.194,0.0
56496.0,STARLINK-5526,PAYLOAD,2024-01-28 19:16:26,14.9833223,0.0002669,69.9999,248.0269,261.2921,98.7936,-4.0678e-05,-5.78e-06,0.0,0 STARLINK-5526,1 56496U 23064BA  24028.80308317 -.00000578  00000-0 -40678-4 0  9992,2 56496  69.9999 248.0269 0002669 261.2921  98.7936 14.98332230 41125,6950.186,96.107,573.906,570.196,0.0
56496.0,STARLINK-5526,PAYLOAD,2024-01-28 22:28:42,14.9833197,0.0002677,69.9998,247.6903,261.7907,98.2949,-4.141e-05,-5.87e-06,0.0,0 STARLINK-5526,1 56496U 23064BA  24028.93660321 -.00000587  00000-0 -41410-4 0  9997,2 56496  69.9998 247.6903 0002677 261.7907  98.2949 14.98331970 40782,6950.187,96.107,573.912,570.191,0.0
56496.0,STARLINK-5526,PAYLOAD,2024-01-29 00:04:50,14.98332284,0.0002708,69.9997,247.5218,265.153,94.932,-3.7695e-05,-5.43e-06,0.0,0 STARLINK-5526,1 56496U 23064BA  24029.00336300 -.00000543  00000-0 -37695-4 0  9995,2 56496  69.9997 247.5218 0002708 265.1530  94.9320 14.98332284 40790,6950.186,96.107,573.933,570.169,0.0
56496.0,STARLINK-5526,PAYLOAD,2024-01-30 00:06:51,14.98328719,0.0002796,69.9996,244.9972,265.9483,94.1356,4.0863e-05,3.95e-06,0.0,0 STARLINK-5526,1 56496U 23064BA  24030.00476285  .00000395  00000-0  40863-4 0  9998,2 56496  69.9996 244.9972 0002796 265.9483  94.1356 14.98328719 41306,6950.197,96.107,574.005,570.119,0.0
56496.0,STARLINK-5526,PAYLOAD,2024-01-30 14:32:03,14.98331778,0.0002781,69.9995,243.4817,268.2554,91.8286,2.658e-05,2.24e-06,0.0,0 STARLINK-5526,1 56496U 23064BA  24030.60560148  .00000224  00000-0  26580-4 0  9997,2 56496  69.9995 243.4817 0002781 268.2554  91.8286 14.98331778 41031,6950.187,96.107,573.985,570.12,0.0
56496.0,STARLINK-5526,PAYLOAD,2024-01-30 22:32:44,14.9833168,0.000277,69.9998,242.6404,269.8662,90.2179,2.5381e-05,2.1e-06,0.0,0 STARLINK-5526,1 56496U 23064BA  24030.93940124  .00000210  00000-0  25381-4 0  9992,2 56496  69.9998 242.6404 0002770 269.8662  90.2179 14.98331680 41083,6950.188,96.107,573.978,570.127,0.0
